{
    "links": {
        "self": "http://www.neowsapp.com/rest/v1/neo/3772401?api_key=iIulBulltgU6a56xZRHN4H3l9WmuAYTsLGpBGhQ2"
    },
    "id": "3772401",
    "neo_reference_id": "3772401",
    "name": "(2017 FF65)",
    "designation": "2017 FF65",
    "nasa_jpl_url": "http://ssd.jpl.nasa.gov/sbdb.cgi?sstr=3772401",
    "absolute_magnitude_h": 21.0,
    "estimated_diameter": {
        "kilometers": {
            "estimated_diameter_min": 0.1677084622,
            "estimated_diameter_max": 0.3750075218
        },
        "meters": {
            "estimated_diameter_min": 167.7084621628,
            "estimated_diameter_max": 375.0075217981
        },
        "miles": {
            "estimated_diameter_min": 0.1042091748,
            "estimated_diameter_max": 0.2330187988
        },
        "feet": {
            "estimated_diameter_min": 550.2246310023,
            "estimated_diameter_max": 1230.3396778159
        }
    },
    "is_potentially_hazardous_asteroid": false,
    "close_approach_data": [
        {
            "close_approach_date": "2017-03-24",
            "close_approach_date_full": "2017-Mar-24 05:39",
            "epoch_date_close_approach": 1490333940000,
            "relative_velocity": {
                "kilometers_per_second": "22.8194898513",
                "kilometers_per_hour": "82150.1634647398",
                "miles_per_hour": "51044.9168484101"
            },
            "miss_distance": {
                "astronomical": "0.3146616338",
                "lunar": "122.4033755482",
                "kilometers": "47072710.187200006",
                "miles": "29249625.7871558428"
            },
            "orbiting_body": "Earth"
        },
        {
            "close_approach_date": "2017-07-06",
            "close_approach_date_full": "2017-Jul-06 12:31",
            "epoch_date_close_approach": 1499344260000,
            "relative_velocity": {
                "kilometers_per_second": "28.2018206198",
                "kilometers_per_hour": "101526.5542312375",
                "miles_per_hour": "63084.6525444042"
            },
            "miss_distance": {
                "astronomical": "0.1136130557",
                "lunar": "44.1954786673",
                "kilometers": "16996271.136911359",
                "miles": "10560993.1647163942"
            },
            "orbiting_body": "Venus"
        }
    ],
    "orbital_data": {
        "orbit_id": "4",
        "orbit_determination_date": "2017-04-06 08:19:10",
        "first_observation_date": "2017-03-17",
        "last_observation_date": "2017-04-03",
        "data_arc_in_days": 17,
        "observations_used": 31,
        "orbit_uncertainty": "8",
        "minimum_orbit_intersection": ".172614",
        "jupiter_tisserand_invariant": "4.339",
        "epoch_osculation": "2457833.5",
        "eccentricity": ".5171212612095997",
        "semi_major_axis": "1.433584131172876",
        "inclination": "37.90064560952557",
        "ascending_node_longitude": "166.156198582403",
        "orbital_period": "626.9504296784199",
        "perihelion_distance": ".69224729721069",
        "perihelion_argument": "124.6998891529774",
        "aphelion_distance": "2.174920965135061",
        "perihelion_time": "2457913.166220510614",
        "mean_anomaly": "314.2550127949801",
        "mean_motion": ".5742080760430357",
        "equinox": "J2000",
        "orbit_class": {
            "orbit_class_type": "APO",
            "orbit_class_description": "Near-Earth asteroid orbits which cross the Earth’s orbit similar to that of 1862 Apollo",
            "orbit_class_range": "a (semi-major axis) > 1.0 AU; q (perihelion) < 1.017 AU"
        }
    },
    "is_sentry_object": false
}